GLOBAL-2                
1 43812U 18099BG  26068.69955396  .00003970  00000+0  26145-3 0  9998
2 43812  97.3697 109.3280 0007454 127.1924 232.9986 15.08046936396919
STARLINK-3739           
1 52266U 22041F   26068.50216546  .00000265  00000+0  34753-4 0  9999
2 52266  53.2168 109.9632 0001362  84.8978 275.2170 15.08842494214336
