[{"OBJECT_NAME":"GLOBAL-2","OBJECT_ID":"2018-099BG","EPOCH":"2026-03-09T16:47:21.463008","MEAN_MOTION":15.08046936,"ECCENTRICITY":0.00074537,"INCLINATION":97.3697,"RA_OF_ASC_NODE":109.328,"ARG_OF_PERICENTER":127.1924,"MEAN_ANOMALY":232.9986,"EPHEMERIS_TYPE":0,"CLASSIFICATION_TYPE":"U","NORAD_CAT_ID":43812,"ELEMENT_SET_NO":999,"REV_AT_EPOCH":39691,"BSTAR":0.0002614533,"MEAN_MOTION_DOT":3.97e-5,"MEAN_MOTION_DDOT":0},{"OBJECT_NAME":"STARLINK-3739","OBJECT_ID":"2022-041F","EPOCH":"2026-03-09T12:03:07.095744","MEAN_MOTION":15.08842494,"ECCENTRICITY":0.00013622,"INCLINATION":53.2168,"RA_OF_ASC_NODE":109.9632,"ARG_OF_PERICENTER":84.8978,"MEAN_ANOMALY":275.217,"EPHEMERIS_TYPE":0,"CLASSIFICATION_TYPE":"U","NORAD_CAT_ID":52266,"ELEMENT_SET_NO":999,"REV_AT_EPOCH":21433,"BSTAR":3.4753268e-5,"MEAN_MOTION_DOT":2.65e-6,"MEAN_MOTION_DDOT":0}]
